ONEWEB-0156             
1 48052U 21025L   24029.32248331 -.00000124  00000+0 -37367-3 0  9999
2 48052  87.9010 133.3615 0001608 106.8879 253.2426 13.13471006139386
ONEWEB-0161             
1 48053U 21025M   24029.37168649  .00000088  00000+0  20593-3 0  9998
2 48053  87.9014 133.3554 0001559 100.2857 259.8448 13.13468792139320
ONEWEB-0158             
1 48054U 21025N   24029.33360233  .00000133  00000+0  32808-3 0  9991
2 48054  87.9008 133.3572 0001798 110.4737 249.6586 13.13470578139447
ONEWEB-0157             
1 48055U 21025P   24029.73829045  .00000353  00000+0  93142-3 0  9999
2 48055  87.9011 133.2938 0001427 106.2767 253.8519 13.13469392139436
ONEWEB-0162             
1 48056U 21025Q   24029.32089456 -.00000204  00000+0 -59365-3 0  9995
2 48056  87.9005 133.3735 0001602 105.0863 255.0444 13.13470150139351
ONEWEB-0155             
1 48057U 21025R   24029.34153607  .00000295  00000+0  77236-3 0  9993
2 48057  87.9009 133.3784 0001694 105.5280 254.6036 13.13469771139493
ONEWEB-0149             
1 48058U 21025S   24029.36216255  .00000282  00000+0  73758-3 0  9996
2 48058  87.9010 133.3714 0001436 111.9839 248.1443 13.13470885139302
ONEWEB-0148             
1 48059U 21025T   24030.31755389 -.00000324  00000+0 -92102-3 0  9993
2 48059  87.9011 133.1863 0000923  96.3415 263.7819 13.13470905139553
